OBJECT_NAME,OBJECT_ID,EPOCH,MEAN_MOTION,ECCENTRICITY,INCLINATION,RA_OF_ASC_NODE,ARG_OF_PERICENTER,MEAN_ANOMALY,EPHEMERIS_TYPE,CLASSIFICATION_TYPE,NORAD_CAT_ID,ELEMENT_SET_NO,REV_AT_EPOCH,BSTAR,MEAN_MOTION_DOT,MEAN_MOTION_DDOT
IRIDIUM 138,2017-083B,2026-06-06T17:04:47.239968,14.34217252,.0002394,86.3973,326.0903,88.9627,271.1843,0,U,43071,999,44263,.60865E-4,.19E-5,0
IRIDIUM 116,2017-083C,2026-06-06T12:58:11.066304,14.34219353,.0001945,86.3960,326.4554,95.6088,264.5329,0,U,43072,999,44264,.75552E-4,.231E-5,0
IRIDIUM 130,2017-083D,2026-06-06T17:13:55.146432,14.34215357,.0001847,86.3967,326.6543,86.8386,273.3021,0,U,43073,999,44261,.74514E-4,.228E-5,0
IRIDIUM 151,2017-083E,2026-06-06T18:17:51.136224,14.34217881,.0002112,86.3959,326.4188,91.9678,268.1759,0,U,43074,999,44264,.48824E-4,.157E-5,0
IRIDIUM 134,2017-083F,2026-06-06T17:32:11.164992,14.34218248,.0002089,86.3962,326.4400,87.9386,272.2049,0,U,43075,999,44260,.21608E-4,.8E-6,0
IRIDIUM 137,2017-083G,2026-06-06T17:50:27.093696,14.34217552,.0001955,86.3961,326.5269,100.8834,259.2582,0,U,43076,999,44267,.27559E-4,.97E-6,0
IRIDIUM 141,2017-083H,2026-06-06T17:41:19.188096,14.34217144,.0002085,86.3953,326.3611,90.4396,269.7039,0,U,43077,999,44267,-.18684E-4,-.33E-6,0
IRIDIUM 153,2017-083J,2026-06-06T14:51:59.470848,14.34217703,.0002363,86.3954,294.8902,90.3685,269.7782,0,U,43078,999,44376,.7306E-5,.4E-6,0
IRIDIUM 131,2017-083K,2026-06-06T17:23:03.122880,14.34217500,.0002085,86.3958,326.5516,91.8661,268.2774,0,U,43079,999,44260,-.1851E-4,-.32E-6,0
IRIDIUM 144,2018-030A,2026-06-06T03:17:51.347904,14.34217715,.00020333,86.3951,295.0216,96.9096,263.2331,0,U,43249,999,42855,.3648966E-4,.122E-5,0
IRIDIUM 149,2018-030B,2026-06-06T15:10:15.453984,14.34217709,.000226,86.3951,294.7816,93.0580,267.0875,0,U,43250,999,42864,.10305E-4,.49E-6,0
IRIDIUM 157,2018-030C,2026-06-06T15:37:39.427392,14.34217485,.0002079,86.3948,294.8265,93.5333,266.6100,0,U,43251,999,42862,-.2288E-5,.13E-6,0
IRIDIUM 140,2018-030D,2026-06-06T16:05:03.424992,14.34217673,.0002159,86.3952,294.8310,92.1207,268.0236,0,U,43252,999,42868,.73069E-5,.4E-6,0
IRIDIUM 145,2018-030E,2026-06-06T15:46:47.307072,14.34217578,.0001839,86.3950,294.8087,96.0785,264.0620,0,U,43253,999,42861,.22598E-4,.83E-6,0
IRIDIUM 146,2018-030F,2026-06-05T20:54:15.405696,14.34217426,.0001953,86.3947,295.1500,94.3523,265.7895,0,U,43254,999,42851,-.5288E-5,.5E-7,0
IRIDIUM 148,2018-030G,2026-06-06T16:14:11.348736,14.34217525,.0002057,86.3949,294.8561,97.0436,263.0994,0,U,43255,999,42866,-.74178E-5,-.1E-7,0
IRIDIUM 142,2018-030H,2026-06-06T15:28:31.381824,14.34217625,.0002025,86.3948,294.7584,95.5960,264.5467,0,U,43256,999,42862,.92716E-5,.46E-6,0
IRIDIUM 150,2018-030J,2026-06-06T14:42:51.444288,14.34217621,.0002152,86.3954,294.8879,91.6488,268.4954,0,U,43257,999,42864,.69792E-5,.39E-6,0
IRIDIUM 143,2018-030K,2026-06-06T15:55:55.407072,14.34217508,.0001974,86.3952,294.9588,94.0347,266.1075,0,U,43258,999,42858,.49433E-6,.21E-6,0
IRIDIUM 161,2018-047C,2026-06-06T13:28:22.787040,14.43276640,.000258,86.4485,92.9125,91.0419,269.1078,0,U,43478,999,42360,.99146E-4,.354E-5,0
IRIDIUM 152,2018-047D,2026-06-06T13:36:10.307808,14.34217770,.0002373,86.3954,92.7724,84.4621,275.6845,0,U,43479,999,42096,.98434E-5,.47E-6,0
IRIDIUM 147,2018-047E,2026-06-06T13:45:18.240192,14.34216852,.000204,86.3956,92.7746,84.5366,275.6062,0,U,43480,999,42096,-.88437E-5,-.5E-7,0
IRIDIUM 110,2018-047F,2026-06-06T02:11:10.326336,14.34217780,.0002582,86.3957,93.0677,87.6962,272.4530,0,U,43481,999,42088,.80706E-5,.42E-6,0
IRIDIUM 162,2018-047G,2026-06-06T13:19:18.503328,14.43275713,.0002365,86.4477,92.8075,83.6612,276.4858,0,U,43482,999,42359,.10432E-3,.371E-5,0
IRIDIUM 160,2018-061A,2026-06-06T10:55:58.474560,14.34217967,.00022634,86.3968,61.2839,87.4955,272.6500,0,U,43569,999,41183,.16568372E-4,.66E-6,0
IRIDIUM 166,2018-061B,2026-06-06T11:32:30.457248,14.34217604,.00019736,86.3964,61.2238,83.6041,276.5379,0,U,43570,999,41186,-.1865969E-5,.15E-6,0
IRIDIUM 158,2018-061C,2026-06-06T10:46:50.442816,14.34217033,.00023029,86.3966,61.2472,84.1758,275.9700,0,U,43571,999,41182,.31564972E-4,.108E-5,0
IRIDIUM 165,2018-061D,2026-06-06T11:23:21.924384,14.34214558,.00022105,86.3972,61.2833,83.5981,276.5466,0,U,43572,999,41185,.85654545E-4,.26E-5,0
IRIDIUM 155,2018-061E,2026-06-06T03:46:42.498048,14.34217711,.00021964,86.3963,61.2846,81.4494,278.6951,0,U,43573,999,41177,.7548556E-5,.41E-6,0
IRIDIUM 154,2018-061F,2026-06-06T11:41:38.451840,14.34217679,.00020417,86.3968,61.2803,86.5536,273.5894,0,U,43574,999,41187,.22997612E-4,.84E-6,0
IRIDIUM 163,2018-061G,2026-06-06T11:14:13.905600,14.34220440,.00023771,86.3961,61.2041,83.1428,277.0038,0,U,43575,999,41184,.21100659E-4,.79E-6,0
